[{"OBJECT_NAME":"STARLINK-5543","OBJECT_ID":"2023-058AA","EPOCH":"2026-03-09T23:29:32.925120","MEAN_MOTION":15.01259134,"ECCENTRICITY":8.577e-5,"INCLINATION":97.6032,"RA_OF_ASC_NODE":70.481,"ARG_OF_PERICENTER":150.622,"MEAN_ANOMALY":209.5053,"EPHEMERIS_TYPE":0,"CLASSIFICATION_TYPE":"U","NORAD_CAT_ID":56341,"ELEMENT_SET_NO":999,"REV_AT_EPOCH":15816,"BSTAR":-2.3742327e-5,"MEAN_MOTION_DOT":-3.63e-6,"MEAN_MOTION_DDOT":0},{"OBJECT_NAME":"PSLV R\/B","OBJECT_ID":"2018-071C","EPOCH":"2026-03-09T22:40:07.416192","MEAN_MOTION":15.00058604,"ECCENTRICITY":0.00237177,"INCLINATION":97.444,"RA_OF_ASC_NODE":249.6196,"ARG_OF_PERICENTER":104.8167,"MEAN_ANOMALY":255.5687,"EPHEMERIS_TYPE":0,"CLASSIFICATION_TYPE":"U","NORAD_CAT_ID":43620,"ELEMENT_SET_NO":999,"REV_AT_EPOCH":40754,"BSTAR":0.00020356401,"MEAN_MOTION_DOT":2.493e-5,"MEAN_MOTION_DDOT":0}]
